SL-16 R/B               
1 24298U 96051B   26165.48185294  .00000105  00000+0  83638-4 0  9994
2 24298  70.7639 330.3744 0015239 340.9487  19.1060 14.12444987535316
ORBVIEW 2 (SEASTAR)     
1 24883U 97037A   26165.44110245  .00000177  00000+0  77798-4 0  9998
2 24883  98.8684 332.3841 0003128 121.6002 238.5488 14.35552079522356
SL-16 R/B               
1 25400U 98043G   26165.48626620  .00000022  00000+0  28345-4 0  9998
2 25400  98.8363 119.6222 0010934  93.3523 266.8908 14.26068170452785
SL-16 R/B               
1 25407U 98045B   26165.48123817 -.00000230  00000+0 -91782-4 0  9995
2 25407  71.0120 338.0207 0009480 244.9510 115.0630 14.16204152440808
ISS (ZARYA)             
1 25544U 98067A   26165.48029322  .00008443  00000+0  15998-3 0  9993
2 25544  51.6335 313.4905 0004925 185.2578 174.8360 15.49225904571335
CZ-4B R/B               
1 25732U 99025C   26165.37685528  .00000050  00000+0  44560-4 0  9995
2 25732  98.6484 207.2860 0038168  67.5248 303.2832 14.18282975401871
OKEAN-O                 
1 25860U 99039A   26165.44128838  .00000514  00000+0  74062-4 0  9991
2 25860  97.9318 224.2705 0001692  74.1255 286.0144 14.80464084448701
SL-16 R/B               
1 25861U 99039B   26165.12799581  .00000442  00000+0  62691-4 0  9991
2 25861  97.9839 223.9997 0013619 307.7856  52.2122 14.81842502451140
DELTA 2 R/B             
1 25876U 99041E   26165.55655418  .00000725  00000+0  15449-3 0  9999
2 25876  51.7658 274.3052 0500857 274.2393  80.1479 14.12012204376710
HELIOS 1B               
1 25977U 99064A   26165.48883027  .00001261  00000+0  14379-3 0  9994
2 25977  98.1618  70.5505 0002482  94.8328 265.3171 14.88000137699659
TERRA                   
1 25994U 99068A   26165.49902449  .00000343  00000+0  78741-4 0  9992
2 25994  97.9457 215.1518 0001370 199.3330 302.4932 14.61101134409215
SL-16 R/B               
1 26070U 00006B   26165.52176255 -.00000187  00000+0 -70577-4 0  9991
2 26070  71.0023 254.2298 0015380  27.1434 333.0490 14.15834372362269
TITAN 4B R/B            
1 26474U 00047B   26165.41104542  .00002833  00000+0  17729-3 0  9999
2 26474  67.9876 128.3871 0045653 290.0548  69.5690 15.10182900407518
ENVISAT                 
1 27386U 02009A   26165.47756317  .00000062  00000+0  34092-4 0  9996
2 27386  98.3834 116.8563 0001335  89.1662  21.6868 14.39064231273092
IDEFIX & ARIANE 42P R/B 
1 27422U 02021B   26165.40279965  .00000170  00000+0  81350-4 0  9992
2 27422  98.5943 102.9161 0010574 263.0618  96.9362 14.31080929257859
AQUA                    
1 27424U 02022A   26165.53189381  .00000688  00000+0  14665-3 0  9999
2 27424  98.4276 134.7616 0001206  53.6987  58.6592 14.62154508282881
CZ-4B R/B               
1 27432U 02024C   26165.40134137  .00000042  00000+0  44255-4 0  9998
2 27432  98.8701 218.2397 0051168 107.9712 263.8444 14.14563887242919
MIDORI II (ADEOS-II)    
1 27597U 02056A   26165.47800374  .00000211  00000+0  10052-3 0  9990
2 27597  98.7878 124.7147 0002208  80.4678 279.6753 14.29348283224124
H-2A R/B                
1 27601U 02056E   26165.50956416  .00000152  00000+0  68107-4 0  9998
2 27601  98.3311 122.2816 0069066 232.6428 239.8883 14.33820993227980
CZ-4B R/B               
1 28059U 03049C   26165.48068612  .00000251  00000+0  69192-4 0  9993
2 28059  98.6896 164.2194 0047033 297.0619  62.5781 14.55098532200676
CZ-2C R/B               
1 28222U 04012C   26165.24448083  .00103879  00000+0  59499-3 0  9992
2 28222  97.7091 240.5659 0009029 296.3814  63.6524 15.78471137219434
SL-16 R/B               
1 28353U 04021B   26165.33280291 -.00000279  00000+0 -12038-3 0  9992
2 28353  71.0012  29.6803 0007377 258.1102 101.9194 14.14609564136505
CZ-4B R/B               
1 28415U 04035C   26165.51759745  .00007250  00000+0  24437-3 0  9991
2 28415  97.3365 198.6209 0030195 347.7680  12.2825 15.30592020194712
CZ-2C R/B               
1 28480U 04046B   26165.45694691  .00000063  00000+0  39056-4 0  9995
2 28480  98.1947  74.4083 0138358 228.3964 130.5296 14.27025962122302
ARIANE 5 R/B            
1 28499U 04049H   26165.43584284  .00000588  00000+0  71039-4 0  9991
2 28499  98.2719 337.5826 0084687  38.2674 322.4509 14.85445757160155
CZ-2D R/B               
1 28738U 05024B   26165.47761959  .00053597  00000+0  45874-3 0  9996
2 28738  97.3481 184.7711 0003865  59.2550 300.9092 15.69286999154916
ALOS (DAICHI)           
1 28931U 06002A   26165.43595428  .00000936  00000+0  16428-3 0  9992
2 28931  98.1323 121.0119 0001561  58.3989 301.7369 14.70045268 87697
H-2A R/B                
1 28932U 06002B   26165.41792300  .00006154  00000+0  29693-3 0  9995
2 28932  98.2554 320.9963 0049532 271.9859  87.5700 15.18031032109107
RESURS-DK 1             
1 29228U 06021A   26165.52343166  .00002421  00000+0  14203-3 0  9993
2 29228  69.9339 346.4480 0006829 293.8044  66.2406 15.13208440102171
CZ-4B R/B               
1 29507U 06046C   26165.08832160  .00004082  00000+0  20315-3 0  9994
2 29507  97.5455 209.7047 0031089 294.0637  65.7345 15.17763803 74665
CZ-2C R/B               
1 31114U 07010B   26165.31243648  .00000064  00000+0  48163-4 0  9994
2 31114  98.4095 273.8039 0059191  14.4673 345.8182 14.20275634993432
