OBJECT_NAME,OBJECT_ID,EPOCH,MEAN_MOTION,ECCENTRICITY,INCLINATION,RA_OF_ASC_NODE,ARG_OF_PERICENTER,MEAN_ANOMALY,EPHEMERIS_TYPE,CLASSIFICATION_TYPE,NORAD_CAT_ID,ELEMENT_SET_NO,REV_AT_EPOCH,BSTAR,MEAN_MOTION_DOT,MEAN_MOTION_DDOT
SL-16 R/B,1996-051B,2026-06-14T11:33:52.094016,14.12444987,.0015239,70.7639,330.3744,340.9487,19.1060,0,U,24298,999,53531,.83638E-4,.105E-5,0
ORBVIEW 2 (SEASTAR),1997-037A,2026-06-14T10:35:11.251680,14.35552079,.0003128,98.8684,332.3841,121.6002,238.5488,0,U,24883,999,52235,.77798E-4,.177E-5,0
SL-16 R/B,1998-043G,2026-06-14T11:40:13.399680,14.26068170,.0010934,98.8363,119.6222,93.3523,266.8908,0,U,25400,999,45278,.28345E-4,.22E-6,0
SL-16 R/B,1998-045B,2026-06-14T11:32:58.977888,14.16204152,.000948,71.0120,338.0207,244.9510,115.0630,0,U,25407,999,44080,-.91782E-4,-.23E-5,0
ISS (ZARYA),1998-067A,2026-06-14T11:31:37.334208,15.49225904,.0004925,51.6335,313.4905,185.2578,174.8360,0,U,25544,999,57133,.15998E-3,.8443E-4,0
CZ-4B R/B,1999-025C,2026-06-14T09:02:40.296192,14.18282975,.0038168,98.6484,207.2860,67.5248,303.2832,0,U,25732,999,40187,.4456E-4,.5E-6,0
OKEAN-O,1999-039A,2026-06-14T10:35:27.316032,14.80464084,.0001692,97.9318,224.2705,74.1255,286.0144,0,U,25860,999,44870,.74062E-4,.514E-5,0
SL-16 R/B,1999-039B,2026-06-14T03:04:18.837984,14.81842502,.00136197,97.9839,223.9997,307.7856,52.2122,0,U,25861,999,45114,.62691444E-4,.442E-5,0
DELTA 2 R/B,1999-041E,2026-06-14T13:21:26.281152,14.12012204,.0500857,51.7658,274.3052,274.2393,80.1479,0,U,25876,999,37671,.15449E-3,.725E-5,0
HELIOS 1B,1999-064A,2026-06-14T11:43:54.935328,14.88000137,.0002482,98.1618,70.5505,94.8328,265.3171,0,U,25977,999,69965,.14379E-3,.1261E-4,0
TERRA,1999-068A,2026-06-14T11:58:35.715936,14.61101134,.000137,97.9457,215.1518,199.3330,302.4932,0,U,25994,999,40921,.78741E-4,.343E-5,0
SL-16 R/B,2000-006B,2026-06-14T12:31:20.284320,14.15834372,.001538,71.0023,254.2298,27.1434,333.0490,0,U,26070,999,36226,-.70577E-4,-.187E-5,0
TITAN 4B R/B,2000-047B,2026-06-14T09:51:54.324288,15.10182900,.0045653,67.9876,128.3871,290.0548,69.5690,0,U,26474,999,40751,.17729E-3,.2833E-4,0
ENVISAT,2002-009A,2026-06-14T11:27:41.457888,14.39064231,.0001335,98.3834,116.8563,89.1662,21.6868,0,U,27386,999,27309,.34092E-4,.62E-6,0
IDEFIX & ARIANE 42P R/B,2002-021B,2026-06-14T09:40:01.889760,14.31080929,.0010574,98.5943,102.9161,263.0618,96.9362,0,U,27422,999,25785,.8135E-4,.17E-5,0
AQUA,2002-022A,2026-06-14T12:45:55.625184,14.62154508,.0001206,98.4276,134.7616,53.6987,58.6592,0,U,27424,999,28288,.14665E-3,.688E-5,0
CZ-4B R/B,2002-024C,2026-06-14T09:37:55.894368,14.14563887,.0051168,98.8701,218.2397,107.9712,263.8444,0,U,27432,999,24291,.44255E-4,.42E-6,0
MIDORI II (ADEOS-II),2002-056A,2026-06-14T11:28:19.523136,14.29348283,.0002208,98.7878,124.7147,80.4678,279.6753,0,U,27597,999,22412,.10052E-3,.211E-5,0
H-2A R/B,2002-056E,2026-06-14T12:13:46.343424,14.33820993,.0069066,98.3311,122.2816,232.6428,239.8883,0,U,27601,999,22798,.68107E-4,.152E-5,0
CZ-4B R/B,2003-049C,2026-06-14T11:32:11.280768,14.55098532,.0047033,98.6896,164.2194,297.0619,62.5781,0,U,28059,999,20067,.69192E-4,.251E-5,0
CZ-2C R/B,2004-012C,2026-06-14T05:52:03.143712,15.78471137,.0009029,97.7091,240.5659,296.3814,63.6524,0,U,28222,999,21943,.59499E-3,.103879E-2,0
SL-16 R/B,2004-021B,2026-06-14T07:59:14.171424,14.14609564,.0007377,71.0012,29.6803,258.1102,101.9194,0,U,28353,999,13650,-.12038E-3,-.279E-5,0
CZ-4B R/B,2004-035C,2026-06-14T12:25:20.419680,15.30592020,.0030195,97.3365,198.6209,347.7680,12.2825,0,U,28415,999,19471,.24437E-3,.725E-4,0
CZ-2C R/B,2004-046B,2026-06-14T10:58:00.213024,14.27025962,.0138358,98.1947,74.4083,228.3964,130.5296,0,U,28480,999,12230,.39056E-4,.63E-6,0
ARIANE 5 R/B,2004-049H,2026-06-14T10:27:36.821376,14.85445757,.0084687,98.2719,337.5826,38.2674,322.4509,0,U,28499,999,16015,.71039E-4,.588E-5,0
CZ-2D R/B,2005-024B,2026-06-14T11:27:46.332576,15.69286999,.0003865,97.3481,184.7711,59.2550,300.9092,0,U,28738,999,15491,.45874E-3,.53597E-3,0
ALOS (DAICHI),2006-002A,2026-06-14T10:27:46.449792,14.70045268,.0001561,98.1323,121.0119,58.3989,301.7369,0,U,28931,999,8769,.16428E-3,.936E-5,0
H-2A R/B,2006-002B,2026-06-14T10:01:48.547200,15.18031032,.0049532,98.2554,320.9963,271.9859,87.5700,0,U,28932,999,10910,.29693E-3,.6154E-4,0
RESURS-DK 1,2006-021A,2026-06-14T12:33:44.495424,15.13208440,.0006829,69.9339,346.4480,293.8044,66.2406,0,U,29228,999,10217,.14203E-3,.2421E-4,0
CZ-4B R/B,2006-046C,2026-06-14T02:07:10.986240,15.17763803,.00310897,97.5455,209.7047,294.0637,65.7345,0,U,29507,999,7466,.20314571E-3,.4082E-4,0
CZ-2C R/B,2007-010B,2026-06-14T07:29:54.511872,14.20275634,.0059191,98.4095,273.8039,14.4673,345.8182,0,U,31114,999,99343,.48163E-4,.64E-6,0
